{
  "type": "FeatureCollection",
  "features": [
    {
      "type": "Feature",
      "properties": {
        "norad_id": 35587,
        "name": "COSMOS 2251 DEB",
        "group": "cosmos-2251-debris",
        "lat": -73.2971262813005,
        "lon": 1.3962817929689462,
        "alt_km": 592.4243595793696,
        "timestamp": "2025-12-04T13:52:00.837988+00:00",
        "meta_object_name": "COSMOS 2251 DEB",
        "meta_object_id": "1993-036AME",
        "meta_epoch": "2025-12-02T13:17:52.139616",
        "meta_mean_motion": 14.71455583,
        "meta_eccentricity": 0.01027177,
        "meta_inclination": 74.0049,
        "meta_ra_of_asc_node": 78.2618,
        "meta_arg_of_pericenter": 268.1186,
        "meta_mean_anomaly": 90.8219,
        "meta_ephemeris_type": 0,
        "meta_classification_type": "U",
        "meta_norad_cat_id": 35587,
        "meta_element_set_no": 999,
        "meta_rev_at_epoch": 66196,
        "meta_bstar": 0.00042147374,
        "meta_mean_motion_dot": 2.801e-05,
        "meta_mean_motion_ddot": 0,
        "tle_line1": "1 35587U 93036AME 25336.55407569  .00002801  00000+0  42147-3 0  9990",
        "tle_line2": "2 35587  74.0049  78.2618 0102717 268.1186  90.8219 14.71455583661966"
      },
      "geometry": {
        "type": "Point",
        "coordinates": [
          1.3962817929689462,
          -73.2971262813005
        ]
      }
    },
    {
      "type": "Feature",
      "properties": {
        "norad_id": 35593,
        "name": "COSMOS 2251 DEB",
        "group": "cosmos-2251-debris",
        "lat": -43.09644318060562,
        "lon": -72.34182760358422,
        "alt_km": 737.4771762577702,
        "timestamp": "2025-12-04T13:52:00.837999+00:00",
        "meta_object_name": "COSMOS 2251 DEB",
        "meta_object_id": "1993-036AML",
        "meta_epoch": "2025-12-02T08:10:41.646720",
        "meta_mean_motion": 14.25498697,
        "meta_eccentricity": 0.01053488,
        "meta_inclination": 74.0851,
        "meta_ra_of_asc_node": 307.1662,
        "meta_arg_of_pericenter": 315.9582,
        "meta_mean_anomaly": 43.3207,
        "meta_ephemeris_type": 0,
        "meta_classification_type": "U",
        "meta_norad_cat_id": 35593,
        "meta_element_set_no": 999,
        "meta_rev_at_epoch": 84917,
        "meta_bstar": 0.0018161686,
        "meta_mean_motion_dot": 4.526e-05,
        "meta_mean_motion_ddot": 0,
        "tle_line1": "1 35593U 93036AML 25336.34075980  .00004526  00000+0  18162-2 0  9997",
        "tle_line2": "2 35593  74.0851 307.1662 0105348 315.9582  43.3207 14.25498697849174"
      },
      "geometry": {
        "type": "Point",
        "coordinates": [
          -72.34182760358422,
          -43.09644318060562
        ]
      }
    },
    {
      "type": "Feature",
      "properties": {
        "norad_id": 35594,
        "name": "COSMOS 2251 DEB",
        "group": "cosmos-2251-debris",
        "lat": -49.26471914997878,
        "lon": -37.23815287557558,
        "alt_km": 590.486652369812,
        "timestamp": "2025-12-04T13:52:00.838009+00:00",
        "meta_object_name": "COSMOS 2251 DEB",
        "meta_object_id": "1993-036AMM",
        "meta_epoch": "2025-12-01T02:30:04.449024",
        "meta_mean_motion": 14.8736155,
        "meta_eccentricity": 0.00313469,
        "meta_inclination": 73.8065,
        "meta_ra_of_asc_node": 130.0573,
        "meta_arg_of_pericenter": 241.1394,
        "meta_mean_anomaly": 118.6638,
        "meta_ephemeris_type": 0,
        "meta_classification_type": "U",
        "meta_norad_cat_id": 35594,
        "meta_element_set_no": 999,
        "meta_rev_at_epoch": 88012,
        "meta_bstar": 0.00176297,
        "meta_mean_motion_dot": 0.00016075,
        "meta_mean_motion_ddot": 0,
        "tle_line1": "1 35594U 93036AMM 25335.10421816  .00016075  00000+0  17630-2 0  9995",
        "tle_line2": "2 35594  73.8065 130.0573 0031346 241.1394 118.6638 14.87361550880129"
      },
      "geometry": {
        "type": "Point",
        "coordinates": [
          -37.23815287557558,
          -49.26471914997878
        ]
      }
    },
    {
      "type": "Feature",
      "properties": {
        "norad_id": 35602,
        "name": "COSMOS 2251 DEB",
        "group": "cosmos-2251-debris",
        "lat": 38.13316084934354,
        "lon": -147.21538337628846,
        "alt_km": 500.6606148648161,
        "timestamp": "2025-12-04T13:52:00.838019+00:00",
        "meta_object_name": "COSMOS 2251 DEB",
        "meta_object_id": "1993-036AMV",
        "meta_epoch": "2025-12-03T02:23:02.143104",
        "meta_mean_motion": 15.34579321,
        "meta_eccentricity": 0.0090916,
        "meta_inclination": 73.9948,
        "meta_ra_of_asc_node": 202.9376,
        "meta_arg_of_pericenter": 270.9306,
        "meta_mean_anomaly": 244.0233,
        "meta_ephemeris_type": 0,
        "meta_classification_type": "U",
        "meta_norad_cat_id": 35602,
        "meta_element_set_no": 999,
        "meta_rev_at_epoch": 89943,
        "meta_bstar": 0.00066173,
        "meta_mean_motion_dot": 0.00025422,
        "meta_mean_motion_ddot": 0,
        "tle_line1": "1 35602U 93036AMV 25337.09933036  .00025422  00000+0  66173-3 0  9990",
        "tle_line2": "2 35602  73.9948 202.9376 0090916 270.9306 244.0233 15.34579321899430"
      },
      "geometry": {
        "type": "Point",
        "coordinates": [
          -147.21538337628846,
          38.13316084934354
        ]
      }
    },
    {
      "type": "Feature",
      "properties": {
        "norad_id": 35605,
        "name": "COSMOS 2251 DEB",
        "group": "cosmos-2251-debris",
        "lat": 2.283709698628847,
        "lon": 173.56744888271865,
        "alt_km": 487.8062421986997,
        "timestamp": "2025-12-04T13:52:00.838029+00:00",
        "meta_object_name": "COSMOS 2251 DEB",
        "meta_object_id": "1993-036AMY",
        "meta_epoch": "2025-11-25T09:05:01.395168",
        "meta_mean_motion": 15.26251894,
        "meta_eccentricity": 0.00343964,
        "meta_inclination": 73.8732,
        "meta_ra_of_asc_node": 13.9291,
        "meta_arg_of_pericenter": 311.4103,
        "meta_mean_anomaly": 48.4141,
        "meta_ephemeris_type": 0,
        "meta_classification_type": "U",
        "meta_norad_cat_id": 35605,
        "meta_element_set_no": 999,
        "meta_rev_at_epoch": 65706,
        "meta_bstar": 0.0065174874,
        "meta_mean_motion_dot": 0.00175767,
        "meta_mean_motion_ddot": 0,
        "tle_line1": "1 35605U 93036AMY 25329.37848837  .00175767  00000+0  65175-2 0  9997",
        "tle_line2": "2 35605  73.8732  13.9291 0034396 311.4103  48.4141 15.26251894657063"
      },
      "geometry": {
        "type": "Point",
        "coordinates": [
          173.56744888271865,
          2.283709698628847
        ]
      }
    },
    {
      "type": "Feature",
      "properties": {
        "norad_id": 35606,
        "name": "COSMOS 2251 DEB",
        "group": "cosmos-2251-debris",
        "lat": 46.15687529070208,
        "lon": 41.413314390290665,
        "alt_km": 1442.822611342318,
        "timestamp": "2025-12-04T13:52:00.838039+00:00",
        "meta_object_name": "COSMOS 2251 DEB",
        "meta_object_id": "1993-036AMZ",
        "meta_epoch": "2025-12-03T08:57:47.035584",
        "meta_mean_motion": 13.41186059,
        "meta_eccentricity": 0.04578387,
        "meta_inclination": 73.8109,
        "meta_ra_of_asc_node": 25.726,
        "meta_arg_of_pericenter": 232.8079,
        "meta_mean_anomaly": 123.0404,
        "meta_ephemeris_type": 0,
        "meta_classification_type": "U",
        "meta_norad_cat_id": 35606,
        "meta_element_set_no": 999,
        "meta_rev_at_epoch": 60914,
        "meta_bstar": 0.0017547479,
        "meta_mean_motion_dot": 1.782e-05,
        "meta_mean_motion_ddot": 0,
        "tle_line1": "1 35606U 93036AMZ 25337.37346106  .00001782  00000+0  17547-2 0  9994",
        "tle_line2": "2 35606  73.8109  25.7260 0457838 232.8079 123.0404 13.41186059609140"
      },
      "geometry": {
        "type": "Point",
        "coordinates": [
          41.413314390290665,
          46.15687529070208
        ]
      }
    },
    {
      "type": "Feature",
      "properties": {
        "norad_id": 35611,
        "name": "COSMOS 2251 DEB",
        "group": "cosmos-2251-debris",
        "lat": -73.69269598083572,
        "lon": 116.8681205679658,
        "alt_km": 644.5094512764945,
        "timestamp": "2025-12-04T13:52:00.838050+00:00",
        "meta_object_name": "COSMOS 2251 DEB",
        "meta_object_id": "1993-036ANE",
        "meta_epoch": "2025-12-01T14:30:37.941120",
        "meta_mean_motion": 14.72378528,
        "meta_eccentricity": 0.00224128,
        "meta_inclination": 74.0218,
        "meta_ra_of_asc_node": 201.0005,
        "meta_arg_of_pericenter": 275.1179,
        "meta_mean_anomaly": 84.7435,
        "meta_ephemeris_type": 0,
        "meta_classification_type": "U",
        "meta_norad_cat_id": 35611,
        "meta_element_set_no": 999,
        "meta_rev_at_epoch": 87126,
        "meta_bstar": 0.0019124254,
        "meta_mean_motion_dot": 0.00012147,
        "meta_mean_motion_ddot": 0,
        "tle_line1": "1 35611U 93036ANE 25335.60460580  .00012147  00000+0  19124-2 0  9997",
        "tle_line2": "2 35611  74.0218 201.0005 0022412 275.1179  84.7435 14.72378528871263"
      },
      "geometry": {
        "type": "Point",
        "coordinates": [
          116.8681205679658,
          -73.69269598083572
        ]
      }
    }
  ]
}